
SITRO-AIS 7 (FARTUSHNIY)
1 57194U 23091AE  25032.60700641  .00017298  00000+0  90430-3 0  9992
2 57194  97.5790  89.5372 0016240  57.3976 302.8821 15.15824324 88161
SITRO-AIS 10 (BURDAEV)  
1 57199U 23091AK  25032.57346237  .00022230  00000+0  10455-2 0  9990
2 57199  97.5800  91.5288 0011214  44.4095 315.8037 15.19530364 88280
SITRO-AIS 9 (SHCHUKIN)  
1 57201U 23091AM  25032.57896806  .00022442  00000+0  10587-2 0  9997
2 57201  97.5795  91.4841 0011173  44.6051 315.6081 15.19423977 88287
SITRO-AIS 12 (SMIRENNIY)
1 57204U 23091AQ  25032.57790814  .00022635  00000+0  10616-2 0  9999
2 57204  97.5804  91.7097 0011023  38.9780 321.2247 15.19625084 88297
SITRO-AIS 11 (SHEFFER)  
1 57208U 23091AU  25032.54529896  .00021617  00000+0  10099-2 0  9994
2 57208  97.5803  91.7355 0010914  39.9801 320.2235 15.19771492 88291
VERONIKA                
1 58261U 23174F   25032.47022644  .00071391  00000+0  16213-2 0  9995
2 58261  97.4312 113.8717 0007709 148.1261 212.0454 15.42747172 68770
ROBUSTA-1E (ENSO)       
1 58470U 23185J   25032.59159324  .00051999  00000+0  12759-2 0  9991
2 58470  97.3931 105.0061 0008905 178.8365 181.2903 15.40490715 65237
SITRO-AIS 29            
1 59052U 24039B   25032.61185516  .00111838  00000+0  15919-2 0  9992
2 59052  97.4128   2.9126 0014775 105.8683 254.4201 15.55842007 51886
SITRO-AIS 30            
1 59053U 24039C   25032.59685571  .00107892  00000+0  15897-2 0  9996
2 59053  97.4123   2.7711 0014752 106.4345 253.8532 15.54913789 51860
SITRO-AIS 31            
1 59054U 24039D   25032.60874957  .00113136  00000+0  16252-2 0  9991
2 59054  97.4139   2.9133 0014549 108.2508 252.0331 15.55591685 51892
SITRO-AIS 33            
1 59055U 24039E   25032.58220415  .00114942  00000+0  16411-2 0  9996
2 59055  97.4128   2.9585 0014359 106.7436 253.5396 15.55754756 51880
SITRO-AIS 35            
1 59056U 24039F   25032.57273405  .00114821  00000+0  16326-2 0  9994
2 59056  97.4140   2.9684 0014254 108.9084 251.3717 15.55869700 51881
SITRO-AIS 32            
1 59057U 24039G   25032.61910862  .00104454  00000+0  15229-2 0  9997
2 59057  97.4137   2.9160 0014585 107.8211 252.4636 15.55217426 51888
SITRO-AIS 34            
1 59058U 24039H   25032.58242879  .00116615  00000+0  16656-2 0  9997
2 59058  97.4130   2.9613 0014304 107.0258 253.2565 15.55739913 51887
SITRO-AIS 36            
1 59059U 24039J   25032.55954948  .00115235  00000+0  16486-2 0  9990
2 59059  97.4116   2.9821 0013957 107.6710 252.6070 15.55705605 51880
SITRO-AIS 49            
1 59060U 24039K   25032.59115075  .00105586  00000+0  15396-2 0  9993
2 59060  97.4126   2.9469 0014256 107.2206 253.0610 15.55215327 51882
SITRO-AIS 50            
1 59061U 24039L   25032.57680586  .00122556  00000+0  17050-2 0  9991
2 59061  97.4116   3.1084 0013856 106.0671 254.2110 15.56440891 51892
SITRO-AIS 51            
1 59062U 24039M   25032.56823678  .00121451  00000+0  16751-2 0  9992
2 59062  97.4120   3.1177 0013866 105.5658 254.7128 15.56677961 51895
SITRO-AIS 52            
1 59063U 24039N   25032.61167642  .00117655  00000+0  16162-2 0  9998
2 59063  97.4127   3.2229 0013890 108.0565 252.2205 15.56800072 51906
SITRO-AIS 25            
1 59066U 24039R   25032.58194592  .00008555  00000+0  75529-3 0  9992
2 59066  95.3820 252.9877 0158425 271.4471  86.8608 14.87291692 50152
SITRO-AIS 26            
1 59067U 24039S   25032.59535435  .00009404  00000+0  83254-3 0  9997
2 59067  95.3819 252.9751 0158641 271.5269  86.7787 14.87148784 50158
SITRO-AIS 27            
1 59068U 24039T   25032.55013626  .00010260  00000+0  90259-3 0  9992
2 59068  95.3822 253.0238 0157889 271.2409  87.0729 14.87450611 50156
SITRO-AIS 28            
1 59071U 24039U   25032.60796954  .00009626  00000+0  84644-3 0  9999
2 59071  95.3822 253.0821 0157779 270.9779  87.3370 14.87490446 50168
GRBBETA                 
1 60237U 24128C   25032.49527220  .00008376  00000+0  66373-3 0  9999
2 60237  61.9925 165.5309 0038411  27.3665 332.9437 15.00662496 30965
OOV-CUBE (TUBSAT-30)    
1 60240U 24128F   25032.51164080  .00005684  00000+0  47700-3 0  9999
2 60240  61.9968 166.7810 0036870  23.5447 336.7320 14.98958288 30954
ROBUSTA-3A (MEDITERRAN*)
1 60243U 24128J   25032.52737702  .00013229  00000+0  10179-2 0  9993
2 60243  61.9901 165.6098 0036736  19.5605 340.6885 15.01458827 30973
LASARSAT                
1 62391U 24247Q   25032.62158209  .00027748  00000+0  12794-2 0  9997
2 62391  44.9936 133.8942 0004465 326.5580  33.5018 15.19830740  6550
CROCUBE                 
1 62394U 24247T   25031.70306349  .00024017  00000+0  11121-2 0  9997
2 62394  44.9932 138.8690 0004998 325.5093  34.5462 15.19752784  6413
CALSPHERE 1             
1 00900U 64063C   25032.59478602  .00001132  00000+0  11591-2 0  9996
2 00900  90.2075  60.3607 0025504  12.5280  85.5037 13.75785977  2571
CALSPHERE 2             
1 00902U 64063E   25032.56106777  .00000085  00000+0  11444-3 0  9990
2 00902  90.2215  64.1262 0016805 237.4073 292.3615 13.52845706788573
LCS 1                   
1 01361U 65034C   25032.52332846  .00000024  00000+0  19936-2 0  9999
2 01361  32.1417 285.7880 0010564 148.2551 211.8584  9.89307788160309
TEMPSAT 1               
1 01512U 65065E   25032.53526307  .00000059  00000+0  10136-3 0  9991
2 01512  89.9651 213.2561 0068679 213.3181 209.1635 13.33552947893327
CALSPHERE 4A            
1 01520U 65065H   25032.57499134  .00000173  00000+0  31435-3 0  9993
2 01520  89.9341 126.6946 0070955  77.1840  29.5224 13.36162190895852
OPS 5712 (P/L 160)      
1 02826U 67053A   25032.58472588  .00019420  00000+0  34558-2 0  9990
2 02826  69.9214 175.7518 0002369 332.6156  27.4861 14.67098470992511
LES-5                   
1 02866U 67066E   25032.48189318 -.00000109  00000+0  00000+0 0  9990
2 02866   1.5008 117.4080 0057148 182.1111  69.6247  1.09426149125557
SURCAL 159              
1 02872U 67053F   25032.21237633  .00000328  00000+0  26213-3 0  9998
2 02872  69.9757 359.4404 0004545  23.6388 336.4927 13.99406185940532
OPS 5712 (P/L 153)      
1 02874U 67053H   25032.48404396  .00000160  00000+0  15391-3 0  9990
2 02874  69.9739 108.4295 0005339 147.0378 213.1062 13.96707833936869
SURCAL 150B             
1 02909U 67053J   25032.61052897  .00066932  00000+0  48686-2 0  9990
2 02909  69.9296  96.9305 0007696 336.2943  23.7862 15.03413035  5225
OPS 3811 (DSP 2)        
1 05204U 71039A   25032.44844420  .00000005  00000+0  00000+0 0  9996
2 05204   1.0650 284.6506 0023662   0.7061 264.6465  0.98158682201316
RIGIDSPHERE 2 (LCS 4)   
1 05398U 71067E   25032.52703744  .00001729  00000+0  56643-3 0  9995
2 05398  87.6223 117.8390 0062893  93.3667 267.4729 14.36838923801964
OSCAR 7 (AO-7)          
1 07530U 74089B   25032.50370499 -.00000041  00000+0  36540-4 0  9999
2 07530 101.9928  35.4076 0012214   7.8275 117.2826 12.53685678297771
STARLETTE               
1 07646U 75010A   25032.60752953 -.00000112  00000+0  22871-4 0  9993
2 07646  49.8243 280.4643 0205733 209.3909 149.5284 13.82339406525299
LAGEOS 1                
1 08820U 76039A   25031.20411377  .00000012  00000+0  00000+0 0  9990
2 08820 109.8567   7.3833 0044203  49.2796 319.9188  6.38664909881085
OPS 8701 (DSP 10)       
1 13086U 82019A   25032.51433595 -.00000158  00000+0  00000+0 0  9998
2 13086  10.3091 312.8322 0004582 296.2553 252.3301  0.98190104 20747
PHASE 3B (AO-10)        
1 14129U 83058B   25031.66348230  .00000102  00000+0  00000+0 0  9995
2 14129  27.1355 303.0729 6045453 337.7525   4.6017  2.05868698285167
UOSAT 2 (UO-11)         
1 14781U 84021B   25032.45440129  .00004142  00000+0  45004-3 0  9993
2 14781  97.7381   1.5545 0009135  48.8380 311.3623 14.88603911182570
AJISAI (EGS)            
1 16908U 86061A   25032.58811259 -.00000089  00000+0  57251-4 0  9997
2 16908  50.0069 246.7227 0011288 347.3102 111.5912 12.44510490418054
TDRS 3                  
1 19548U 88091B   25031.22544617 -.00000290  00000+0  00000+0 0  9995
2 19548  12.9853 344.3486 0041686 341.3685 197.3331  1.00271889120358
COSMOS 1989 (ETALON 1)  
1 19751U 89001C   25030.29698933  .00000028  00000+0  00000+0 0  9998
2 19751  64.6616  89.4318 0023706 216.5888 130.7953  2.13156075280719
COSMOS 2024 (ETALON 2)  
1 20026U 89039C   25031.17302267 -.00000046  00000+0  00000+0 0  9997
2 20026  65.2273 327.7789 0019873 216.2768 154.5470  2.13204305277800
FLTSATCOM 8 (USA 46)    
1 20253U 89077A   25027.30188242 -.00000353  00000+0  00000+0 0  9997
2 20253  12.5650 354.1959 0007347 306.4821  60.2774  1.00262553255499
LUSAT (LO-19)           
1 20442U 90005G   25032.48177546  .00000459  00000+0  18160-3 0  9996
2 20442  98.8976  35.0102 0010780 230.8183 129.2044 14.33848517830639
HST                     
1 20580U 90037B   25032.64162166  .00010856  00000+0  44259-3 0  9994
2 20580  28.4673 242.1499 0002807  32.2394 327.8371 15.22794972711983
SKYNET 4C               
1 20776U 90079A   25031.54687975  .00000134  00000+0  00000+0 0  9995
2 20776  13.5001 353.2260 0003395 314.9713  53.1014  1.00276269125918
USA 65 (DSP 15)         
1 20929U 90095A   25032.34297132 -.00000011  00000+0  00000+0 0  9999
2 20929  14.3155 347.5224 0003417  87.8123 264.5662  0.98394969 20532
TDRS 5                  
1 21639U 91054B   25032.31377947 -.00000295  00000+0  00000+0 0  9998
2 21639  14.1313 357.4373 0004893 293.6956 251.3891  1.00271467122699
USA 75 (DSP 16)         
1 21805U 91080B   25031.64496443 -.00000234  00000+0  00000+0 0  9993
2 21805  14.2755 349.0885 0003178  95.7734  85.8258  0.99189913 20730
LAGEOS 2                
1 22195U 92070B   25032.29886541 -.00000009  00000+0  00000+0 0  9990
2 22195  52.6364 223.2071 0137110 328.0478 183.7257  6.47294240762993
